[{"OBJECT_NAME":"ONEWEB-0387","OBJECT_ID":"2021-090AL","EPOCH":"2026-04-28T05:10:32.748384","MEAN_MOTION":13.20770205,"ECCENTRICITY":0.0001681,"INCLINATION":87.9133,"RA_OF_ASC_NODE":284.4289,"ARG_OF_PERICENTER":105.2578,"MEAN_ANOMALY":254.8742,"EPHEMERIS_TYPE":0,"CLASSIFICATION_TYPE":"U","NORAD_CAT_ID":49313,"ELEMENT_SET_NO":999,"REV_AT_EPOCH":22322,"BSTAR":-0.00030136000000000003,"MEAN_MOTION_DOT":-1.1e-06,"MEAN_MOTION_DDOT":0.0},{"OBJECT_NAME":"ONEWEB-0388","OBJECT_ID":"2021-090AM","EPOCH":"2026-04-28T07:01:49.828512","MEAN_MOTION":13.19723916,"ECCENTRICITY":0.0001901,"INCLINATION":87.9151,"RA_OF_ASC_NODE":314.9208,"ARG_OF_PERICENTER":92.0671,"MEAN_ANOMALY":268.0679,"EPHEMERIS_TYPE":0,"CLASSIFICATION_TYPE":"U","NORAD_CAT_ID":49314,"ELEMENT_SET_NO":999,"REV_AT_EPOCH":21983,"BSTAR":-0.00016196,"MEAN_MOTION_DOT":-5.2e-07,"MEAN_MOTION_DDOT":0.0},{"OBJECT_NAME":"ONEWEB-0389","OBJECT_ID":"2021-132A","EPOCH":"2026-04-28T05:35:07.090944","MEAN_MOTION":13.17648779,"ECCENTRICITY":0.0001769,"INCLINATION":87.9179,"RA_OF_ASC_NODE":15.7949,"ARG_OF_PERICENTER":92.824,"MEAN_ANOMALY":267.3094,"EPHEMERIS_TYPE":0,"CLASSIFICATION_TYPE":"U","NORAD_CAT_ID":50469,"ELEMENT_SET_NO":999,"REV_AT_EPOCH":21150,"BSTAR":7.362800000000001e-06,"MEAN_MOTION_DOT":1.6e-07,"MEAN_MOTION_DDOT":0.0},{"OBJECT_NAME":"ONEWEB-0390","OBJECT_ID":"2021-132B","EPOCH":"2026-04-28T05:37:32.128032","MEAN_MOTION":13.17647852,"ECCENTRICITY":0.0001597,"INCLINATION":87.918,"RA_OF_ASC_NODE":15.7952,"ARG_OF_PERICENTER":76.6104,"MEAN_ANOMALY":283.5206,"EPHEMERIS_TYPE":0,"CLASSIFICATION_TYPE":"U","NORAD_CAT_ID":50470,"ELEMENT_SET_NO":999,"REV_AT_EPOCH":21150,"BSTAR":0.00013063,"MEAN_MOTION_DOT":6.4e-07,"MEAN_MOTION_DDOT":0.0},{"OBJECT_NAME":"ONEWEB-0391","OBJECT_ID":"2021-132C","EPOCH":"2026-04-28T05:39:58.497408","MEAN_MOTION":13.17648673,"ECCENTRICITY":0.0001418,"INCLINATION":87.9181,"RA_OF_ASC_NODE":15.8042,"ARG_OF_PERICENTER":106.8959,"MEAN_ANOMALY":253.2329,"EPHEMERIS_TYPE":0,"CLASSIFICATION_TYPE":"U","NORAD_CAT_ID":50471,"ELEMENT_SET_NO":999,"REV_AT_EPOCH":21150,"BSTAR":-0.00022753,"MEAN_MOTION_DOT":-7.5e-07,"MEAN_MOTION_DDOT":0.0},{"OBJECT_NAME":"ONEWEB-0392","OBJECT_ID":"2021-132D","EPOCH":"2026-04-28T06:23:43.029600","MEAN_MOTION":13.17649796,"ECCENTRICITY":0.0001677,"INCLINATION":87.9191,"RA_OF_ASC_NODE":15.7626,"ARG_OF_PERICENTER":93.629,"MEAN_ANOMALY":266.5034,"EPHEMERIS_TYPE":0,"CLASSIFICATION_TYPE":"U","NORAD_CAT_ID":50472,"ELEMENT_SET_NO":999,"REV_AT_EPOCH":21154,"BSTAR":0.00012395,"MEAN_MOTION_DOT":6.1e-07,"MEAN_MOTION_DDOT":0.0},{"OBJECT_NAME":"ONEWEB-0393","OBJECT_ID":"2021-132E","EPOCH":"2026-04-28T05:48:28.806048","MEAN_MOTION":13.17651889,"ECCENTRICITY":0.0001745,"INCLINATION":87.9185,"RA_OF_ASC_NODE":15.7888,"ARG_OF_PERICENTER":86.0187,"MEAN_ANOMALY":274.1144,"EPHEMERIS_TYPE":0,"CLASSIFICATION_TYPE":"U","NORAD_CAT_ID":50473,"ELEMENT_SET_NO":999,"REV_AT_EPOCH":21153,"BSTAR":3.5429000000000004e-06,"MEAN_MOTION_DOT":1.4e-07,"MEAN_MOTION_DDOT":0.0},{"OBJECT_NAME":"ONEWEB-0394","OBJECT_ID":"2021-132F","EPOCH":"2026-04-28T04:06:37.868832","MEAN_MOTION":13.1865067,"ECCENTRICITY":0.0001804,"INCLINATION":87.9204,"RA_OF_ASC_NODE":345.3905,"ARG_OF_PERICENTER":91.9998,"MEAN_ANOMALY":268.1341,"EPHEMERIS_TYPE":0,"CLASSIFICATION_TYPE":"U","NORAD_CAT_ID":50474,"ELEMENT_SET_NO":999,"REV_AT_EPOCH":21500,"BSTAR":7.4735e-05,"MEAN_MOTION_DOT":4.2e-07,"MEAN_MOTION_DDOT":0.0},{"OBJECT_NAME":"ONEWEB-0395","OBJECT_ID":"2021-132G","EPOCH":"2026-04-28T06:27:16.514496","MEAN_MOTION":13.11421152,"ECCENTRICITY":0.0001628,"INCLINATION":87.8921,"RA_OF_ASC_NODE":30.9943,"ARG_OF_PERICENTER":80.9628,"MEAN_ANOMALY":279.1684,"EPHEMERIS_TYPE":0,"CLASSIFICATION_TYPE":"U","NORAD_CAT_ID":50475,"ELEMENT_SET_NO":999,"REV_AT_EPOCH":20917,"BSTAR":0.0006264900000000001,"MEAN_MOTION_DOT":2.35e-06,"MEAN_MOTION_DDOT":0.0},{"OBJECT_NAME":"ONEWEB-0396","OBJECT_ID":"2021-132H","EPOCH":"2026-04-28T02:07:42.835008","MEAN_MOTION":13.18670189,"ECCENTRICITY":0.0001776,"INCLINATION":87.9203,"RA_OF_ASC_NODE":345.4193,"ARG_OF_PERICENTER":88.6679,"MEAN_ANOMALY":271.4656,"EPHEMERIS_TYPE":0,"CLASSIFICATION_TYPE":"U","NORAD_CAT_ID":50476,"ELEMENT_SET_NO":999,"REV_AT_EPOCH":21503,"BSTAR":0.00013287,"MEAN_MOTION_DOT":6.5e-07,"MEAN_MOTION_DDOT":0.0},{"OBJECT_NAME":"ONEWEB-0397","OBJECT_ID":"2021-132J","EPOCH":"2026-04-28T04:18:39.594816","MEAN_MOTION":13.18620399,"ECCENTRICITY":0.0001951,"INCLINATION":87.9204,"RA_OF_ASC_NODE":345.401,"ARG_OF_PERICENTER":89.0655,"MEAN_ANOMALY":271.0701,"EPHEMERIS_TYPE":0,"CLASSIFICATION_TYPE":"U","NORAD_CAT_ID":50477,"ELEMENT_SET_NO":999,"REV_AT_EPOCH":21502,"BSTAR":0.00018294,"MEAN_MOTION_DOT":8.5e-07,"MEAN_MOTION_DDOT":0.0},{"OBJECT_NAME":"ONEWEB-0398","OBJECT_ID":"2021-132K","EPOCH":"2026-04-28T07:30:45.285696","MEAN_MOTION":13.11416084,"ECCENTRICITY":0.000155,"INCLINATION":87.8932,"RA_OF_ASC_NODE":30.9712,"ARG_OF_PERICENTER":73.1201,"MEAN_ANOMALY":287.0097,"EPHEMERIS_TYPE":0,"CLASSIFICATION_TYPE":"U","NORAD_CAT_ID":50478,"ELEMENT_SET_NO":999,"REV_AT_EPOCH":20907,"BSTAR":-0.001772,"MEAN_MOTION_DOT":-6.15e-06,"MEAN_MOTION_DDOT":0.0},{"OBJECT_NAME":"ONEWEB-0399","OBJECT_ID":"2021-132L","EPOCH":"2026-04-28T07:11:14.474112","MEAN_MOTION":13.11415514,"ECCENTRICITY":0.0001947,"INCLINATION":87.8933,"RA_OF_ASC_NODE":30.9843,"ARG_OF_PERICENTER":94.1802,"MEAN_ANOMALY":265.9548,"EPHEMERIS_TYPE":0,"CLASSIFICATION_TYPE":"U","NORAD_CAT_ID":50479,"ELEMENT_SET_NO":999,"REV_AT_EPOCH":20906,"BSTAR":0.00034248,"MEAN_MOTION_DOT":1.34e-06,"MEAN_MOTION_DDOT":0.0},{"OBJECT_NAME":"ONEWEB-0400","OBJECT_ID":"2021-132M","EPOCH":"2026-04-28T01:58:07.641696","MEAN_MOTION":13.18691104,"ECCENTRICITY":0.0001633,"INCLINATION":87.9205,"RA_OF_ASC_NODE":345.4105,"ARG_OF_PERICENTER":80.0504,"MEAN_ANOMALY":280.0812,"EPHEMERIS_TYPE":0,"CLASSIFICATION_TYPE":"U","NORAD_CAT_ID":50480,"ELEMENT_SET_NO":999,"REV_AT_EPOCH":21500,"BSTAR":0.00032365,"MEAN_MOTION_DOT":1.41e-06,"MEAN_MOTION_DDOT":0.0},{"OBJECT_NAME":"ONEWEB-0401","OBJECT_ID":"2021-132N","EPOCH":"2026-04-28T03:03:05.956992","MEAN_MOTION":13.18544819,"ECCENTRICITY":0.0001988,"INCLINATION":87.9206,"RA_OF_ASC_NODE":345.398,"ARG_OF_PERICENTER":82.4221,"MEAN_ANOMALY":277.7137,"EPHEMERIS_TYPE":0,"CLASSIFICATION_TYPE":"U","NORAD_CAT_ID":50481,"ELEMENT_SET_NO":999,"REV_AT_EPOCH":21501,"BSTAR":0.00029186,"MEAN_MOTION_DOT":1.28e-06,"MEAN_MOTION_DDOT":0.0},{"OBJECT_NAME":"ONEWEB-0402","OBJECT_ID":"2021-132P","EPOCH":"2026-04-28T02:10:07.829760","MEAN_MOTION":13.1866361,"ECCENTRICITY":0.0002286,"INCLINATION":87.9202,"RA_OF_ASC_NODE":345.3958,"ARG_OF_PERICENTER":84.9024,"MEAN_ANOMALY":275.2369,"EPHEMERIS_TYPE":0,"CLASSIFICATION_TYPE":"U","NORAD_CAT_ID":50482,"ELEMENT_SET_NO":999,"REV_AT_EPOCH":21503,"BSTAR":3.8586e-05,"MEAN_MOTION_DOT":2.8e-07,"MEAN_MOTION_DDOT":0.0}]