ONEWEB-0387             
1 49313U 21090AL  26118.21565681 -.00000110  00000+0 -30136-3 0  9993
2 49313  87.9133 284.4289 0001681 105.2578 254.8742 13.20770205223224
ONEWEB-0388             
1 49314U 21090AM  26118.29293783 -.00000052  00000+0 -16196-3 0  9998
2 49314  87.9151 314.9208 0001901  92.0671 268.0679 13.19723916219830
ONEWEB-0389             
1 50469U 21132A   26118.23272096  .00000016  00000+0  73628-5 0  9999
2 50469  87.9179  15.7949 0001769  92.8240 267.3094 13.17648779211503
ONEWEB-0390             
1 50470U 21132B   26118.23439963  .00000064  00000+0  13063-3 0  9997
2 50470  87.9180  15.7952 0001597  76.6104 283.5206 13.17647852211505
ONEWEB-0391             
1 50471U 21132C   26118.23609372 -.00000075  00000+0 -22753-3 0  9991
2 50471  87.9181  15.8042 0001418 106.8959 253.2329 13.17648673211506
ONEWEB-0392             
1 50472U 21132D   26118.26647025  .00000061  00000+0  12395-3 0  9996
2 50472  87.9191  15.7626 0001677  93.6290 266.5034 13.17649796211544
ONEWEB-0393             
1 50473U 21132E   26118.24200007  .00000014  00000+0  35429-5 0  9993
2 50473  87.9185  15.7888 0001745  86.0187 274.1144 13.17651889211537
ONEWEB-0394             
1 50474U 21132F   26118.17127163  .00000042  00000+0  74735-4 0  9990
2 50474  87.9204 345.3905 0001804  91.9998 268.1341 13.18650670215009
ONEWEB-0395             
1 50475U 21132G   26118.26894114  .00000235  00000+0  62649-3 0  9992
2 50475  87.8921  30.9943 0001628  80.9628 279.1684 13.11421152209173
ONEWEB-0396             
1 50476U 21132H   26118.08869022  .00000065  00000+0  13287-3 0  9998
2 50476  87.9203 345.4193 0001776  88.6679 271.4656 13.18670189215033
ONEWEB-0397             
1 50477U 21132J   26118.17962494  .00000085  00000+0  18294-3 0  9991
2 50477  87.9204 345.4010 0001951  89.0655 271.0701 13.18620399215021
ONEWEB-0398             
1 50478U 21132K   26118.31302414 -.00000615  00000+0 -17720-2 0  9991
2 50478  87.8932  30.9712 0001550  73.1201 287.0097 13.11416084209070
ONEWEB-0399             
1 50479U 21132L   26118.29947308  .00000134  00000+0  34248-3 0  9995
2 50479  87.8933  30.9843 0001947  94.1802 265.9548 13.11415514209069
ONEWEB-0400             
1 50480U 21132M   26118.08203289  .00000141  00000+0  32365-3 0  9993
2 50480  87.9205 345.4105 0001633  80.0504 280.0812 13.18691104215005
ONEWEB-0401             
1 50481U 21132N   26118.12715228  .00000128  00000+0  29186-3 0  9992
2 50481  87.9206 345.3980 0001988  82.4221 277.7137 13.18544819215016
ONEWEB-0402             
1 50482U 21132P   26118.09036840  .00000028  00000+0  38586-4 0  9999
2 50482  87.9202 345.3958 0002286  84.9024 275.2369 13.18663610215031
